facility,street,city,zip,address,type
Crossroads Community Hospital,#8 Doctors Park Road,Mount Vernon,62864,#8 DOCTORS PARK ROAD MT VERNON,ACH
SSM St. Mary's Good Samaritan Hospital-Mt. Vernon,1 Good Samaritan Way,Mount Vernon,62864,1 GOOD SAMARITAN WAY MT VERNON,ACH
Ingalls Memorial Hospital,1 Ingalls Drive,Harvey,60426,1 INGALLS DRIVE HARVEY,ACH
Kishwaukee Hospital,1 Kish Hospital Drive,Dekalb,60115,1 KISH HOSPITAL DRIVE DEKALB,ACH
Alton Memorial Hospital,1 Memorial Dr,Alton,62002,1 MEMORIAL DRIVE ALTON,ACH
OSF Saint Anthony Health Center-Alton,1 Saint Anthony Way,Alton,62002,1 SAINT ANTHONY WAY ALTON,ACH
Harrisburg Medical Center,100 Dr. Warren Tuttle Drive,Harrisburg,62946,100 DRIVE WARREN TUTTLE DRIVE HARRISBURG,ACH
CGH Medical Center,100 E Lefevre Rd,Sterling,61081,100 EAST LEFEVRE ROADSTERLING,ACH
AVENUES TO INDEPENDENCE,100 NORTH CLIFTON PARK RIDGE,Park Ridge,60068,100 NORTH CLIFTON PARK RIDGE,NH
Sarah Bush Lincoln Health Center,1000 Health Center Drive,Mattoon,61938,1000 HEALTH CENTER DRIVE MATTOON,ACH
Kirby Medical Center,1000 Medical Center Drive,Monticello,61856,1000 MEDICAL CENTER DRIVE MONTICELLO,ACH
Crawford Memorial Hospital,1000 N Allen St,Robinson,62454,1000 NORTH ALLEN STREET ROBINSON,ACH
OSF Holy Family Medical Center,1000 W Harlem Ave,Monmouth,61462,1000 WEST HARLEM AVENUE MONMOUTH,ACH
PRESENCE RESURRECTION NSG & REHAB CTR,1001 NORTH GREENWOOD AVENUE,Park Ridge,,1001 NORTH GREENWOOD AVENUE PARK RIDGE,SNF
Blessing Hospital,1005 Broadway,Quincy,62301,1005 BROADWAY QUINCY,ACH
Pana Community Hospital,101 E Ninth,Pana,62557,101 EAST NINTH PANA,ACH
Pinckneyville Community Hospital,101 North Walnut,Pinckneyville,62274,101 NORTH WALNUT PINCKNEYVILLE,ACH
Advocate Eureka Hospital,101 S. Major Street,Eureka,61530,101 SOUTH MAJOR STREET EUREKA,ACH
SOUTHPOINT NRSG & REHAB CTR,1010 WEST 95TH STREET CHICAGO,Chicago,60643,1010 WEST 95TH STREET CHICAGO,NH
AVANTARA AT EVERGREEN PARK,10124 SOUTH KEDZIE AVENUE,Evergreen Park,,10124 SOUTH KEDZIE AVENUE EVERGREEN PARK,SNF
AVANTARA EVERGREEN PARK,10124 SOUTH KEDZIE EVERGREEN PARK,Evergreen Park,60805,10124 SOUTH KEDZIE EVERGREEN PARK,NH
LEXINGTON OF CHICAGO RIDGE,10300 SOUTHWEST HIGHWAY,Chicago Ridge,,10300 SOUTHWEST HIGHWAY CHICAGO RIDGE,SNF
BELMONT VILLAGE OAK PARK,1035 MADISON STREET OAK PARK,Oak Park,60302,1035 MADISON STREET OAK PARK,NH
Centegra Hospital - Huntley,10400 Haligus Rd,Huntley,60142,10400 HALIGUS ROADHUNTLEY,ACH
BRIA OF PALOS HILLS,10426 SOUTH ROBERTS,Palos Hills,,10426 SOUTH ROBERTS PALOS HILLS,SNF
Norwegian-American Hospital,1044 North Francisco Avenue,Chicago,60622,1044 NORTH FRANCISCO AVENUE CHICAGO,ACH
FHN Memorial Hospital,1045 W. Stephenson Street,Freeport,61032,1045 WEST STEPHENSON STREET FREEPORT,ACH
BELLWOOD DEVELOPMENTAL CENTER,105 EASTERN AVENUE,Bellwood,,105 EASTERN AVENUE BELLWOOD,SNF
SMITH CROSSING,10501 EMILIE LANE,Orland Park,,10501 EMILIE LANE ORLAND PARK,SNF
OSF Saint Luke Medical Center,1051 W South St,Kewanee,61443,1051 WEST SOUTH STREET KEWANEE,ACH
CHICAGO RIDGE NURSING CENTER,10602 SOUTHWEST HIGHWAY,Chicago Ridge,,10602 SOUTHWEST HIGHWAY CHICAGO RIDGE,SNF
Hopedale Medical Complex,107 Tremont St,Hopedale,61747,107 TREMONT STREET HOPEDALE,ACH
SYMPHONY OF MORGAN PARK,10935 SOUTH HALSTED STREET CHICAGO,Chicago,60628,10935 SOUTH HALSTED STREET CHICAGO,NH
OSF Saint Elizabeth Medical Center,1100 East Norris Drive,Ottawa,61350,1100 EAST NORRIS DRIVE OTTAWA,ACH
ZACHARY HOUSE,1102 EAST AVENUE STREAMWOOD,Streamwood,60107,1102 EAST AVENUE STREAMWOOD,NH
HSHS -St. Mary's Hospital-Streator,111 Spring Street,Streator,61364,111 SPRING STREET STREATOR,ACH
Gibson Area Hospital,1120 N Melvin St.,Gibson,60936,1120 NORTH MELVIN STREET GIBSON,ACH
MADO HEALTHCARE - OLD TOWN,1121 NORTH ORLEANS STREET CHICAGO,Chicago,60610,1121 NORTH ORLEANS STREET CHICAGO,NH
Rush-Copley Emergency Center,1122 West Veterans Parkway,Yorkville,60560,1122 WEST VETERANS PARKWAY YORKVILLE,ACH
ELISABETH LUDEMAN DEV CENTER,114 NORTH ORCHARD DRIVE PARK FOREST,Park Forest,60466,114 NORTH ORCHARD DRIVE PARK FOREST,NH
BELHAVEN NURSING & REHAB CTR.,11401 SOUTH OAKLEY AVENUE CHICAGO,Chicago,60643,11401 SOUTH OAKLEY AVENUE CHICAGO,NH
MANORCARE OF PALOS HEIGHTS WEST,11860 SOUTHWEST HIGHWAY,Palos Heights,,11860 SOUTHWEST HIGHWAY PALOS HEIGHTS,SNF
DOBSON PLAZA,120 DODGE AVENUE EVANSTON,Evanston,60202,120 DODGE AVENUE EVANSTON,NH
Adventist Hinsdale Hospital,120 North Oak Street,Hinsdale,60521,120 NORTH OAK STREET HINSDALE,ACH
BRIA OF CHICAGO HEIGHTS,120 WEST 26TH STREET SO CHICAGO HTS,So Chicago Heights,60411,120 WEST 26TH STREET SO CHICAGO HTS,NH
BRIA OF CHICAGO HEIGHTS,120 WEST 26TH STREET,South Chicago Heights,,120 WEST 26TH STREET SOUTH CHICAGO HEIGHTS,SNF
Hillsboro Area Hospital,1200 E Tremont St,Hillsboro,62049,1200 EAST TREMONT STREET HILLSBORO,ACH
TRANSITIONAL CARE OF ARLINGTON HEIGHTS,1200 N. ARLINGTON HEIGHTS RD,Arlington Heights,,1200 NORTH ARLINGTON HEIGHTS ROADARLINGTON HEIGHTS,SNF
TRANSITIONAL CARE OF ARL HTS,1200 NORTH ARLINGTON HEIGHTS ROADARLINGTON HTS,Arlington Heights,60004,1200 NORTH ARLINGTON HEIGHTS ROADARLINGTON HTS,NH
CHURCH CREEK,1200 WEST CENTRAL ROAD,Arlington Heights,,1200 WEST CENTRAL ROAD ARLINGTON HEIGHTS,SNF
CHURCH CREEK,1200 WEST CENTRAL ROAD ARLINGTON HTS,Arlington Heights,60005,1200 WEST CENTRAL ROAD ARLINGTON HTS,NH
Ferrell Hospital,1201 Pine St,Eldorado,62930,1201 PINE STREET ELDORADO,ACH
Salem Township Hospital,1201 Ricker Drive,Salem,62881,1201 RICKER DRIVE SALEM,ACH
CHILDREN'S HABILITATION CENTER,121 WEST 154TH STREET,Harvey,,121 WEST 154TH STREET HARVEY,SNF
HSHS St. Francis Hospital,1215 Franciscan Drive,Litchfield,62056,1215 FRANCISCAN DRIVE LITCHFIELD,ACH
ALDEN - DES PLAINES REHAB/HCC,1221 EAST GOLF ROAD,Des Plaines,,1221 EAST GOLF ROAD DES PLAINES,SNF
HOLY FAMILY VILLA,12220 SOUTH WILL COOK ROAD,Palos Park,,12220 SOUTH WILL COOK ROAD PALOS PARK,SNF
Westlake Hospital,1225 W Lake St,Melrose Park,60160,1225 WEST LAKE STREET MELROSE PARK,ACH
Palos Community Hospital,12251 S 80th Ave,Palos?heights,60463,12251 SOUTH 80TH AVENUE PALOS?HEIGHTS,ACH
ALDEN GARDEN CTS OF DESPLAINES,1227 EAST GOLF ROAD DES PLAINES,Des Plaines,60016,1227 EAST GOLF ROAD DES PLAINES,NH
LEMONT NURSING & REHAB CENTER,12450 WALKER ROAD,Lemont,,12450 WALKER ROAD LEMONT,SNF
PARK VILLA NURSING & REHAB CENTER,12550 SOUTH RIDGELAND AVENUE,Palos Heights,,12550 SOUTH RIDGELAND AVENUE PALOS HEIGHTS,SNF
FRANCISCAN VILLAGE,1260 FRANCISCAN DRIVE,Lemont,,1260 FRANCISCAN DRIVE LEMONT,SNF
PARK LAWN HOME,12615 SOUTH KOSTNER AVENUE,Alsip,,12615 SOUTH KOSTNER AVENUE ALSIP,SNF
FRANCISCAN VILLAGE,1270 FRANCISCAN DRIVE LEMONT,Lemont,60439,1270 FRANCISCAN DRIVE LEMONT,NH
BETHSHAN ASSOCIATION,12927 SOUTH MONITOR PALOS HEIGHTS,Palos Heights,60463,12927 SOUTH MONITOR PALOS HEIGHTS,NH
MetroSouth Medical Center,12935 South Gregory Street,Blue Island,60406,12935 SOUTH GREGORY STREET BLUE ISLAND,ACH
APERION CARE EVANSTON,1300 OAK AVENUE EVANSTON,Evanston,60201,1300 OAK AVENUE EVANSTON,NH
LEE MANOR,1301 LEE STREET,Des Plaines,,1301 LEE STREET DES PLAINES,SNF
Valley West Hospital,1302 N. Main Street,Sandwich,60548,1302 NORTH MAIN STREET SANDWICH,ACH
Advocate BroMenn Medical Center,1304 Franklin Ave,Normal,61761,1304 FRANKLIN AVENUE NORMAL,ACH
Vista Medical Center - East,1324 North Sheridan Road,Waukegan,60085,1324 NORTH SHERIDAN ROAD WAUKEGAN,ACH
Presence Mercy Medical Center,1325 North Highland Avenue,Aurora,60506,1325 NORTH HIGHLAND AVENUE AURORA,ACH
PALOS HEIGHTS REHABILITATION,13259 SOUTH CENTRAL AVENUE CRESTWOOD,Crestwood,60418,13259 SOUTH CENTRAL AVENUE CRESTWOOD,NH
PROVIDENCE OF PALOS HEIGHTS,13259 SOUTH CENTRAL AVENUE,Palos Heights,,13259 SOUTH CENTRAL AVENUE PALOS HEIGHTS,SNF
CRESTWOOD TERRACE NURSING CENTER,13301 SOUTH CENTRAL AVENUE,Crestwood,,13301 SOUTH CENTRAL AVENUE CRESTWOOD,SNF
SYMPHONY OF LINCOLN PARK,1366 WEST FULLERTON AVENUE CHICAGO,Chicago,60614,1366 WEST FULLERTON AVENUE CHICAGO,NH
CALUMET CITY TERRACE (GROUP HOME?),1380 RIVER DRIVE,Calumet City,,1380 RIVER DRIVE CALUMET CITY,SNF
LYDIA HEALTHCARE,13901 SOUTH LYDIA AVENUE ROBBINS,Robbins,60472,13901 SOUTH LYDIA AVENUE ROBBINS,NH
ALVERNIA MANOR,13950 MAIN STREET LEMONT,Lemont,60439,13950 MAIN STREET LEMONT,NH
OSF Heart of Mary Medical Center,1400 West Park Street,Urbana,61801,1400 WEST PARK STREET URBANA,ACH
OSF - St. Paul Medical Center,1401 E. 12th Street,Mendota,61342,1401 EAST 12TH STREET MENDOTA,ACH
Swedish American Hospital - Rockford,1401 East State Street,Rockford,61104,1401 EAST STATE STREET ROCKFORD,ACH
CENTER HOME HISPANIC ELDERLY,1401 NORTH CALIFORNIA CHICAGO,Chicago,60622,1401 NORTH CALIFORNIA CHICAGO,NH
SCHWAB REHABILITATION CTR SNU,1401 SOUTH CALIFORNIA BOULEVARD CHICAGO,Chicago,60608,1401 SOUTH CALIFORNIA BOULEVARD CHICAGO,NH
Memorial East Hospital,1404 Cross St,Shiloh,62269,1404 CROSS STREET SHILOH,ACH
GREENWOOD CARE,1406 CHICAGO AVENUE EVANSTON,Evanston,60201,1406 CHICAGO AVENUE EVANSTON,NH
WESLEY PLACE,1415 WEST FOSTER AVENUE CHICAGO,Chicago,60640,1415 WEST FOSTER AVENUE CHICAGO,NH
Wabash General Hospital,1418 College Drive.,Mount Carmel,62863,1418 COLLEGE DRIVE MOUNT CARMEL,ACH
ALDEN ESTATES OF BARRINGTON,1420 SOUTH BARRINGTON ROAD,Barrington,,1420 SOUTH BARRINGTON ROAD BARRINGTON,SNF
Franciscan St. James Health - Chicago Heights,1423 Chicago Road,Chicago Heights,60411,1423 CHICAGO ROAD CHICAGO HEIGHTS,ACH
Advocate Sherman Hospital,1425 N Randall Road,Elgin,60123,1425 NORTH RANDALL ROAD ELGIN,ACH
ATRIUM HEALTH CARE CENTER,1425 WEST ESTES AVENUE CHICAGO,Chicago,60626,1425 WEST ESTES AVENUE CHICAGO,NH
SYMPHONY OF CRESTWOOD,14255 SOUTH CICERO AVENUE,Crestwood,,14255 SOUTH CICERO AVENUE CRESTWOOD,SNF
BIRCHWOOD PLAZA,1426 WEST BIRCHWOOD CHICAGO,Chicago,60626,1426 WEST BIRCHWOOD CHICAGO,NH
PRESENCES STS MARY & ELIZ,1431 NORTH CLAREMONT AVENUE CHICAGO,Chicago,60622,1431 NORTH CLAREMONT AVENUE CHICAGO,NH
APERION CARE DOLTON,14325 SOUTH BLACKSTONE,Dolton,,14325 SOUTH BLACKSTONE DOLTON,SNF
MARKLUND WASMOND CENTER (FORMERLY LITTLE ANGELS PAT WASMOND HOME),1435 SUMMIT STREET,Elgin,,1435 SUMMIT STREET ELGIN,SNF
BRIA OF RIVER OAKS,14500 SOUTH MANISTEE BURNHAM,Burnham,60633,14500 SOUTH MANISTEE BURNHAM,NH
Memorial Hospital-Carthage,1454 North County Road 2050,Carthage,62321,1454 NORTH COUNTY ROAD 2050 CARTHAGE,ACH
LEXINGTON ORLAND PARK,14601 John Humphrey Dr,Orland Park,,14601 JOHN HUMPHREY DRIVE ORLAND PARK,SNF
LEXINGTON HEALTH CARE CENTER,14601 S. JOHN HUMPHREY DRIVE,Orland Park,,14601 SOUTH JOHN HUMPHREY DRIVE ORLAND PARK,SNF
Northwestern GraysLake,1475 E. Belvidere Road,Grayslake,60030,1475 EAST BELVIDERE ROAD GRAYSLAKE,ACH
SYMPHONY OF BUFFALO GROVE,150 NORTH WEILAND ROAD,Buffalo Grove,,150 NORTH WEILAND ROAD BUFFALO GROVE,SNF
Mount Sinai Hospital,1500 South Fairfield Avenue,Chicago,60608,1500 SOUTH FAIRFIELD AVENUE CHICAGO,ACH
Morris Hospital,150w. High St.,Morris,60450,150W HIGH STREET MORRIS,ACH
GLENVIEW TERRACE NURSING CTR,1511 GREENWOOD ROAD,Glenview,,1511 GREENWOOD ROAD GLENVIEW,SNF
ARBOUR HEALTH CARE CENTER,1512 WEST FARGO CHICAGO,Chicago,60626,1512 WEST FARGO CHICAGO,NH
HSHS St. Joseph's Hospital-Highland,1515 Main Street,Highland,62249,1515 MAIN STREET HIGHLAND,ACH
HOLLAND TERRACE,15175 STATE STREET SOUTH HOLLAND,South Holland,60473,15175 STATE STREET SOUTH HOLLAND,NH
ALDEN POPLAR CREEK REHAB & HCC,1545 BARRINGTON ROAD HOFFMAN ESTATES,Hoffman Estates,60169,1545 BARRINGTON ROAD HOFFMAN ESTATES,NH
ALDEN POPLAR CREEK,1545 BARRINGTON RD,Hoffman Estates,,1545 BARRINGTON ROADHOFFMAN ESTATES,SNF
Elmhurst Memorial Hospital,155 E. Brush Hill Road,Elmhurst,60126,155 EAST BRUSH HILL ROAD ELMHURST,ACH
MADO HEALTHCARE - DOUGLAS PARK,1550 SOUTH ALBANY AVENUE CHICAGO,Chicago,60623,1550 SOUTH ALBANY AVENUE CHICAGO,NH
DIXIE MANOR SHELTERED CARE,15535 DIXIE HIGHWAY HARVEY,Harvey,60426,15535 DIXIE HIGHWAY HARVEY,NH
Saint Alexius Medical Center,1555 Barrington Road,Hoffman Estates,60169,1555 BARRINGTON ROAD HOFFMAN ESTATES,ACH
HEATHER HEALTH CARE CENTER,15600 SOUTH HONORE STREET,Harvey,,15600 SOUTH HONORE STREET HARVEY,SNF
BJORKLUND HOUSE,15841 TERRACE DRIVE OAK FOREST,Oak Forest,60452,15841 TERRACE DRIVE OAK FOREST,NH
THORNTON HEIGHTS TERRACE,160 WEST 10TH STREET,Chicago Heights,,160 WEST 10TH STREET CHICAGO HEIGHTS,SNF
Passavant Area Hospital,1600 W Walnut,Jacksonville,62650,1600 WEST WALNUT JACKSONVILLE,ACH
PRAIRIE OASIS,16000 WABASH AVENUE SOUTH HOLLAND,South Holland,60473,16000 WABASH AVENUE SOUTH HOLLAND,NH
WINDMILL NURSING PAVILION,16000 WABASH,South Holland,,16000 WABASH SOUTH HOLLAND,SNF
AVANTARA PARK RIDGE,1601 NORTH WESTERN AVENUE,Park Ridge,,1601 NORTH WESTERN AVENUE PARK RIDGE,SNF
Swedish American Hospital - Belvidere,1625 South State Street,Belvidere,61008,1625 SOUTH STATE STREET BELVIDERE,ACH
ELEVATE SENIOR LIVING,16300 LOUIS AVENUE SOUTH HOLLAND,South Holland,60473,16300 LOUIS AVENUE SOUTH HOLLAND,NH
THE VILLA AT SOUTH HOLLAND,16300 WAUSAU AVE,South Holland,,16300 WAUSAU AVENUE SOUTH HOLLAND,SNF
"VILLA AT SOUTH HOLLAND,THE",16300 WAUSAU STREET SOUTH HOLLAND,South Holland,60473,16300 WAUSAU STREET SOUTH HOLLAND,NH
SPAULDING TERRACE,16307 SPAULDING AVENUE MARKHAM,Markham,60426,16307 SPAULDING AVENUE MARKHAM,NH
COUNTRYSIDE NURSING & REHAB CTR,1635 EAST 154TH STREET,Dolton,,1635 EAST 154TH STREET DOLTON,SNF
CAROLE LANE TERRACE,1641 CAROLE LANE SAUK VILLAGE,Sauk Village,60411,1641 CAROLE LANE SAUK VILLAGE,NH
ALDEN ESTATES OF ORLAND PARK,16450 SOUTH 97TH AVENUE,Orland Park,,16450 SOUTH 97TH AVENUE ORLAND PARK,SNF
Rush University Medical Center,1653 W. Congress Parkway,Chicago,60612,1653 WEST CONGRESS PARKWAY CHICAGO,ACH
GENERATIONS AT OAKTON,1660 OAKTON PLACE,Des Plaines,,1660 OAKTON PLACE DES PLAINES,SNF
PRESENCE MARYHAVEN NURSING & REHAB CTR,1700 EAST LAKE AVENUE,Glenview,,1700 EAST LAKE AVENUE GLENVIEW,SNF
WARREN BARR SOUTH LOOP,1725 SOUTH WABASH AVENUE CHICAGO,Chicago,60616,1725 SOUTH WABASH AVENUE CHICAGO,NH
PHOENIX COURT,17312 CLYDE AVENUE,South Holland,,17312 CLYDE AVENUE SOUTH HOLLAND,SNF
University of Illinois Hospital,1740 W Taylor St Ste 1300,Chicago,60612,1740 WEST TAYLOR STREET STE 1300 CHICAGO,ACH
ASBURY COURT NURSING & REHAB,1750 ELMHURST ROAD DES PLAINES,Des Plaines,60018,1750 ELMHURST ROAD DES PLAINES,NH
ASBURRY  HEALTH AND WELLNESS,1750 South Elmhurst Road,Des Plaines,,1750 SOUTH ELMHURST ROAD DES PLAINES,SNF
LITTLE CITY FOUNDATION-SOUTH,1760 WEST ALGONQUIN ROAD PALATINE,Palatine,60067,1760 WEST ALGONQUIN ROAD PALATINE,NH
PRAIRIE HOUSE,1770 SAUK TRAIL SAUK VILLAGE,Sauk Village,60411,1770 SAUK TRAIL SAUK VILLAGE,NH
Advocate Lutheran General Hospital,1775 Dempster Street,Park Ridge,60068,1775 DEMPSTER STREET PARK RIDGE,ACH
Advocate South Suburban Hospital,17800 Kedzie Avenue,Hazel Crest,60429,17800 KEDZIE AVENUE HAZEL CREST,ACH
ROSEWOOD CARE CENTER OF INVERNESS,1800 COLONIAL PARKWAY,Inverness,,1800 COLONIAL PARKWAY INVERNESS,SNF
HSHS St. Mary's Hospital - Decatur,1800 E. Lake Shore Drive,Decatur,62521,1800 EAST LAKE SHORE DRIVE DECATUR,ACH
RAVISLOE TERRACE,18227 RAVISLOE CNTRY CLUB HILLS,Cntry Club Hills,60478,18227 RAVISLOE CNTRY CLUB HILLS,NH
WINDSOR ESTATES (MCALLISTER NURSING & REHAB ),18300 SOUTH LAVERGNE AVENUE,Tinley Park,,18300 SOUTH LAVERGNE AVENUE TINLEY PARK,SNF
WINDSOR ESTATES NSG & REHAB,18300 SOUTH LAVERGNE CNTRY CLUB HILLS,Cntry Club Hills,60478,18300 SOUTH LAVERGNE CNTRY CLUB HILLS,NH
Silver Cross Hospital,1900 Silver Cross Blvd,New Lenox,60451,1900 SILVER CROSS BOULEVARD NEW LENOX,ACH
Memorial Hospital-Chester,1900 State Street,Chester,62233,1900 STATE STREET CHESTER,ACH
SOUTH SUBURBAN REHAB CENTER,19000 SOUTH HALSTED STREET HOMEWOOD,Homewood,60430,19000 SOUTH HALSTED STREET HOMEWOOD,NH
MANORCARE OF ELK GROVE VILLAGE,1920 NERGE ROAD ELK GROVE VILLAG,Elk Grove Villag,60007,1920 NERGE ROAD ELK GROVE VILLAG,NH
MANOR CARE - ELK GROVE VILLAGE,1920 NERGE ROAD,Elk Grove Village,,1920 NERGE ROAD ELK GROVE VILLAGE,SNF
GLENWOOD HEALTHCARE & REHAB,19330 SOUTH COTTAGE GROVE,Glenwood,,19330 SOUTH COTTAGE GROVE GLENWOOD,SNF
BELMONT CROSSING OF LAKEVIEW,1936 WEST BELMONT AVENUE CHICAGO,Chicago,60657,1936 WEST BELMONT AVENUE CHICAGO,NH
ARDEN COURTS OF ELK GROVE,1940 NERGE ROAD ELK GROVE,Elk Grove,60007,1940 NERGE ROAD ELK GROVE,NH
John H Stroger Hospital,1969 W Ogden Ave,Chicago,60612,1969 WEST OGDEN AVENUE CHICAGO,ACH
WEST SUBURBAN MEDICAL CENTER,2 ERIE COURT OAK PARK,Oak Park,60302,2 ERIE COURT OAK PARK,NH
SIH St. Joseph Memorial Hospital,2 South Hospital Drive,Murphysboro,62966,2 SOUTH HOSPITAL DRIVE MURPHYSBORO,ACH
Iroquois Memorial Hospital,200 E. Fairman Ave.,Watseka,60970,200 EAST FAIRMAN AVENUE WATSEKA,ACH
HSHS Holy Family Hospital (Greenville Regional ),200 Healthcare Drive,Greenville,62246,200 HEALTHCARE DRIVE GREENVILLE,ACH
Shelby Memorial Hospital,200 S. Cedar Street,Shelbyville,62565,200 SOUTH CEDAR STREET SHELBYVILLE,ACH
Abraham Lincoln Memorial,200 Stahlhut Dr.,Lincoln,62656,200 STAHLHUT DRIVE LINCOLN,ACH
Rush-Copley Medical Center,2000 Ogden Ave,Aurora,60505,2000 OGDEN AVENUE AURORA,ACH
SYMPHONY AT HANOVER PARK FORMERLY CLEAREMONT HANOVER PARK,2000 WEST LAKE STREET,Hanover Park,,2000 WEST LAKE STREET HANOVER PARK,SNF
Franklin Hospital District,201 Bailey Lane,Benton,62812,201 BAILEY LANE BENTON,ACH
Taylorville Memorial Hospital,201 East Pleasant Street,Taylorville,62568,201 EAST PLEASANT STREET TAYLORVILLE,ACH
SIH Herrin Hospital,201 South 14th Street,Herrin,62948,201 SOUTH 14TH STREET HERRIN,ACH
WENTWORTH REHAB & HCC,201 WEST 69TH STREET CHICAGO,Chicago,60621,201 WEST 69TH STREET CHICAGO,NH
Franciscan St. James Health - Olympia Fields,20201 South Crawford Avenue,Olympia Fields,60461,20201 SOUTH CRAWFORD AVENUE OLYMPIA FIELDS,ACH
CLAYTON RESIDENTIAL HOME,2026 NORTH CLARK STREET CHICAGO,Chicago,60614,2026 NORTH CLARK STREET CHICAGO,NH
ARDEN COURTS OF SOUTH HOLLAND,2045 EAST 170TH STREET SOUTH HOLLAND,South Holland,60473,2045 EAST 170TH STREET SOUTH HOLLAND,NH
BALMORAL HOME,2055 WEST BALMORAL AVENUE CHICAGO,Chicago,60625,2055 WEST BALMORAL AVENUE CHICAGO,NH
MCAULEY RESIDENCE,2060 WEST GRANVILLE AVENUE CHICAGO,Chicago,60659,2060 WEST GRANVILLE AVENUE CHICAGO,NH
Carlinville Area Hospital,20733 N. Broad,Carlinville,62626,20733 NORTH BROAD CARLINVILLE,ACH
Graham Hospital,210 West Walnut St,Canton,61520,210 WEST WALNUT STREET CANTON,ACH
Gateway Regional Medical Center,2100 Madison Ave,Granite City,62040,2100 MADISON AVENUE GRANITE CITY,ACH
NorthShore Glenbrook Hospital,2100 Pfingsten Road,Glenview,60026,2100 PFINGSTEN ROAD GLENVIEW,ACH
APPLEWOOD NRSG & REHAB CENTER,21020 KOSTNER AVENUE,Matteson,,21020 KOSTNER AVENUE MATTESON,SNF
HSHS St. Elizabeth's Hospital,211 S. 3rd?street,Belleville,62220,211 SOUTH 3RD?STREET BELLEVILLE,ACH
SOUTH HOLLAND MANOR HRC,2145 EAST 170TH STREET,South Holland,,2145 EAST 170TH STREET SOUTH HOLLAND,SNF
CHARTER SR LVG POPLAR CREEK,2150 WEST GOLF ROAD HOFFMAN ESTATES,Hoffman Estates,60169,2150 WEST GOLF ROAD HOFFMAN ESTATES,NH
BRANDEL HEALTH AND REHAB,2155 PFINGSTEN ROAD NORTHBROOK,Northbrook,60062,2155 PFINGSTEN ROAD NORTHBROOK,NH
WINSTON MANOR CNV & NURSING,2155 WEST PIERCE CHICAGO,Chicago,60622,2155 WEST PIERCE CHICAGO,NH
Loyola University Medical Center,2160 South First Ave,Maywood,60153,2160 SOUTH FIRST AVENUE MAYWOOD,ACH
GREEK AMERICAN REHAB & CARE CENTER,220 NORTH 1ST STREET,Wheeling,,220 NORTH 1ST STREET WHEELING,SNF
GREEK AMERICAN REHAB & CARE CT,220 NORTH FIRST STREET WHEELING,Wheeling,60090,220 NORTH FIRST STREET WHEELING,NH
OSF St. Joseph Medical Center,2200 E Washington St,Bloomington,61701,2200 EAST WASHINGTON STREET BLOOMINGTON,ACH
BELMONT VILLAGE GLENVIEW,2200 GOLF ROAD GLENVIEW,Glenview,60025,2200 GOLF ROAD GLENVIEW,NH
Lawrence County Memorial Hospital,2200 State Street,Lawrenceville,62439,2200 STATE STREET LAWRENCEVILLE,ACH
Unitypoint Health - Methodist Hospital,222 NE Glen Oak Ave,Peoria,61636,222 NORTHEAST GLEN OAK AVENUE PEORIA,ACH
Presence Saints Mary And Elizabeth Medical Center,2233 W Division St,Chicago,60622,2233 WEST DIVISION STREET CHICAGO,ACH
WOODBRIDGE NURSING PAVILION,2242 NORTH KEDZIE CHICAGO,Chicago,60647,2242 NORTH KEDZIE CHICAGO,NH
GLENSHIRE NURSING & REHAB CENTRE,22660 SOUTH CICERO AVENUE,Richton Park,,22660 SOUTH CICERO AVENUE RICHTON PARK,SNF
Lurie Children's Hospital Of Chicago,2300 N Childrens Plz # 30,Chicago,60614,2300 NORTH CHILDRENS PLZ CHICAGO,ACH
Decatur Memorial Hospital,2300 N. Edward St.,Decatur,62526,2300 NORTH EDWARD STREET DECATUR,ACH
Rockford Memorial Hospital,2300 N. Rockton Ave,Rockford,61103,2300 NORTH ROCKTON AVENUE ROCKFORD,ACH
LYNWOOD TERRACE,2317 EAST 207TH STREET LYNWOOD,Lynwood,60411,2317 EAST 207TH STREET LYNWOOD,NH
Advocate Trinity Hospital,2320 East 93rd Street,Chicago,60617,2320 EAST 93RD STREET CHICAGO,ACH
LITTLE VILLAGE NRSG & RHB CTR,2320 SOUTH LAWNDALE AVENUE CHICAGO,Chicago,60623,2320 SOUTH LAWNDALE AVENUE CHICAGO,NH
SMITH VILLAGE,2320 WEST 113TH PLACE CHICAGO,Chicago,60643,2320 WEST 113TH PLACE CHICAGO,NH
THREE CROWNS PARK,2323 MCDANIEL AVENUE EVANSTON,Evanston,60201,2323 MCDANIEL AVENUE EVANSTON,NH
LITTLE SISTERS OF THE POOR,2325 NORTH LAKEWOOD AVENUE CHICAGO,Chicago,60614,2325 NORTH LAKEWOOD AVENUE CHICAGO,NH
MATTESON COURT,237 CENTRAL AVENUE MATTESON,Matteson,60443,237 CENTRAL AVENUE MATTESON,NH
Sarah D Culbertson Memorial Hospital,238 South Congress Street,Rushville,62681,238 SOUTH CONGRESS STREET RUSHVILLE,ACH
APERION CARE PLUM GROVE,24 SOUTH PLUM GROVE ROAD,Palatine,,24 SOUTH PLUM GROVE ROAD PALATINE,SNF
VI AT THE GLEN,2401 INDIGO LANE,Glenview,,2401 INDIGO LANE GLENVIEW,SNF
SYMPHONY OF SOUTH SHORE,2425 EAST 71ST STREET CHICAGO,Chicago,60649,2425 EAST 71ST STREET CHICAGO,NH
"WESTWOOD MANOR, THE",2444 WEST TOUHY AVENUE CHICAGO,Chicago,60645,2444 WEST TOUHY AVENUE CHICAGO,NH
CENTRAL NURSING HOME,2450 NORTH CENTRAL AVENUE CHICAGO,Chicago,60639,2450 NORTH CENTRAL AVENUE CHICAGO,NH
ELEVATE CARE CHICAGO NORTH,2451 WEST TOUHY AVENUE CHICAGO,Chicago,60645,2451 WEST TOUHY AVENUE CHICAGO,NH
Edward Hospital - Plainfield,24600 West 127th Street,Plainfield,60585,24600 WEST 127TH STREET PLAINFIELD,ACH
Central Dupage Hospital,25 North Winfield Road,Winfield,60190,25 NORTH WINFIELD ROAD WINFIELD,ACH
TRI-STATE MANOR NURSING HOME,2500 EAST 175TH STREET,Lansing,,2500 EAST 175TH STREET LANSING,SNF
OSF Saint James-John W Albrecht Medical Center,2500 W Reynolds St,Pontiac,61764,2500 WEST REYNOLDS STREET PONTIAC,ACH
Northwestern Memorial Hospital,251 E. Huron,Chicago,60611,251 EAST HURON CHICAGO,ACH
Midwestern Regional Medical Center-CTCA,2520 Elisha Avenue,Zion,60099,2520 ELISHA AVENUE ZION,ACH
ALDEN ESTATES OF EVANSTON,2520 GROSS POINT ROAD EVANSTON,Evanston,60201,2520 GROSS POINT ROAD EVANSTON,NH
Mercy Hospital And Medical Center,2525 South Michigan Ave,Chicago,60616,2525 SOUTH MICHIGAN AVENUE CHICAGO,ACH
PRINCETON REHAB & HCC,255 WEST 69TH STREET CHICAGO,Chicago,60621,255 WEST 69TH STREET CHICAGO,NH
TORRENCE PLACE,2601 223RD STREET SAUK VILLAGE,Sauk Village,60411,2601 223RD STREET SAUK VILLAGE,NH
SQUIRE'S SHELTERED CARE HOME,2601 NORTH CALIFORNIA CHICAGO,Chicago,60647,2601 NORTH CALIFORNIA CHICAGO,NH
Vista Medical Center - West,2615 Washington Street,Waukegan,60085,2615 WASHINGTON STREET WAUKEGAN,ACH
BUCKINGHAM PAVILION,2625 WEST TOUHY AVENUE CHICAGO,Chicago,60645,2625 WEST TOUHY AVENUE CHICAGO,NH
THE GROVE OF NORTHBROOK,263 SKOKIE BOULEVARD,Northbrook,,263 SKOKIE BOULEVARD NORTHBROOK,SNF
"VILLA AT WINDSOR PARK,THE",2649 EAST 75TH STREET CHICAGO,Chicago,60649,2649 EAST 75TH STREET CHICAGO,NH
NorthShore Evanston Hospital,2650 Ridge Ave,Evanston,60201,2650 RIDGE AVENUE EVANSTON,ACH
ELEVATE CARE NORTHBROOK,270 SKOKIE BOULEVARD NORTHBROOK,Northbrook,60062,270 SKOKIE BOULEVARD NORTHBROOK,NH
GLEN OAKS NURSING. & REHAB. CTR.,270 SKOKIE HIGHWAY,Northbrook,,270 SKOKIE HIGHWAY NORTHBROOK,SNF
Unitypoint Health-Trinity Rock Island,2701 17th St.,Rock Island,61201,2701 17TH STREET ROCK ISLAND,ACH
Holy Cross Hospital,2701 West 68th Street,Chicago,60629,2701 WEST 68TH STREET CHICAGO,ACH
TIBSTRA HOUSE,271 EAST 161ST STREET SOUTH HOLLAND,South Holland,60473,271 EAST 161ST STREET SOUTH HOLLAND,NH
WARREN BARR LINCOLN PARK,2732 NORTH HAMPDEN COURT CHICAGO,Chicago,60614,2732 NORTH HAMPDEN COURT CHICAGO,NH
Massac Memorial Hospital,28 Chick Street,Metropolis,62960,28 CHICK STREET METROPOLIS,ACH
SCOTTISH HOME (CALEDONIA SENIOR LIVING),2800 DES PLAINES AVENUE,North Riverside,,2800 DES PLAINES AVENUE NORTH RIVERSIDE,SNF
"SCOTTISH HOME, THE",2800 DES PLAINES AVENUE RIVERSIDE,Riverside,60546,2800 DES PLAINES AVENUE RIVERSIDE,NH
Little Company of Mary Hospital,2800 W. 95th St.,Evergreen Park,60805,2800 WEST 95TH STREET EVERGREEN PARK,ACH
CALIFORNIA GARDENS N & REHAB C,2829 SOUTH CALIFORNIA BOULEVARD CHICAGO,Chicago,60608,2829 SOUTH CALIFORNIA BOULEVARD CHICAGO,NH
BETHESDA REHAB & SENIOR CARE,2833 NORTH NORDICA AVENUE CHICAGO,Chicago,60634,2833 NORTH NORDICA AVENUE CHICAGO,NH
FOSTER HEALTH & REHAB CENTER,2840 WEST FOSTER AVENUE CHICAGO,Chicago,60625,2840 WEST FOSTER AVENUE CHICAGO,NH
Saint Anthony Hospital-Chicago,2875 West 19th Street,Chicago,60623,2875 WEST 19TH STREET CHICAGO,ACH
Presence Saint Joseph Hospital-Chicago,2900 N Lake Shore Dr,Chicago,60657,2900 NORTH LAKE SHORE DRIVE CHICAGO,ACH
WESTCHESTER HEALTH & REHAB CTR,2901 SOUTH WOLF ROAD WESTCHESTER,Westchester,60154,2901 SOUTH WOLF ROAD WESTCHESTER,NH
WESTCHESTER HEALTH & REHAB.,2901 WOLF ROAD,Westchester,,2901 WOLF ROAD WESTCHESTER,SNF
SYMPHONY AT 87TH STREET,2940 WEST 87TH STREET CHICAGO,Chicago,60652,2940 WEST 87TH STREET CHICAGO,NH
West Suburban Hospital,3 Erie Court,Oak Park,60302,3 ERIE COURT OAK PARK,ACH
PRESENCE NAZARETHVILLE,300 N. RIVER ROAD,Des Plaines,,300 NORTH RIVER ROAD DES PLAINES,SNF
Delnor Hospital,300 Randall Road,Geneva,60134,300 RANDALL ROAD GENEVA,ACH
Morrison Hospital,303 N Jackson Street,Morrison,61270,303 NORTH JACKSON STREET MORRISON,ACH
Fairfield Memorial Hospital,303 Nw 11th St,Fairfield,62837,303 NORTHWEST 11TH STREET FAIRFIELD,ACH
PLYMOUTH PLACE,315 NORTH LAGRANGE ROAD LAGRANGE PARK,Lagrange Park,60526,315 NORTH LAGRANGE ROAD LAGRANGE PARK,NH
WESTMINSTER PLACE,3200 GRANT STREET EVANSTON,Evanston,60201,3200 GRANT STREET EVANSTON,NH
CLEARBROOK CENTER (COMMON),3201 CAMPBELL STREET,Rolling Meadows,,3201 CAMPBELL STREET ROLLING MEADOWS,SNF
CLEARBROOK CENTER,3201 WEST CAMPBELL STREET ROLLING MEADOWS,Rolling Meadows,60008,3201 WEST CAMPBELL STREET ROLLING MEADOWS,NH
CENTRAL PLAZA RESIDENTIAL HOME,321 NORTH CENTRAL AVENUE CHICAGO,Chicago,60644,321 NORTH CENTRAL AVENUE CHICAGO,NH
OAKRIDGE HEALTHCARE CENTER,323 OAKRIDGE AVENUE,Hillside,,323 OAKRIDGE AVENUE HILLSIDE,SNF
ARDEN COURTS OF NORTHBROOK,3240 MILWAUKEE AVENUE NORTHBROOK,Northbrook,60062,3240 MILWAUKEE AVENUE NORTHBROOK,NH
Macneal Hospital,3249 South Oak Park Avenue,Berwyn,60402,3249 SOUTH OAK PARK AVENUE BERWYN,ACH
APERION CARE MIDLOTHIAN,3249 WEST 147 STREET,Midlothian,,3249 WEST 147 STREET MIDLOTHIAN,SNF
APERION CARE MIDLOTHIAN,3249 WEST 147TH STREET MIDLOTHIAN,Midlothian,60445,3249 WEST 147TH STREET MIDLOTHIAN,NH
Red Bud Regional Hospital,325 Spring Street,Red Bud,62217,325 SPRING STREET RED BUD,ACH
MEADOWS,3250 SOUTH PLUM GROVE ROAD ROLLING MEADOWS,Rolling Meadows,60008,3250 SOUTH PLUM GROVE ROAD ROLLING MEADOWS,NH
St Bernard Hospital,326?w 64 Th Street,Chicago,60621,326?WEST 64 TH STREET CHICAGO,ACH
MANORCARE OF NORTHBROOK,3300 MILWAUKEE AVENUE,Northbrook,,3300 MILWAUKEE AVENUE NORTHBROOK,SNF
PINE CREST HEALTH CARE,3300 WEST 175TH STREET,Hazel Crest,,3300 WEST 175TH STREET HAZEL CREST,SNF
SOUTHVIEW MANOR,3311 SOUTH MICHIGAN AVENUE CHICAGO,Chicago,60616,3311 SOUTH MICHIGAN AVENUE CHICAGO,NH
Presence Saint Joseph Medical Center-Joliet,333 Madison St,Joliet,60435,333 MADISON STREET JOLIET,ACH
OSF St. Mary Medical Center,3333 N Seminary,Galesburg,61401,3333 NORTH SEMINARY GALESBURG,ACH
Heartland Regional Medical Center,3333 West Deyoung,Marion,17165,3333 WEST DEYOUNG MARION,ACH
MEADOWBROOK MANOR LAGRANGE,339 9TH AVENUE LAGRANGE,Lagrange,60525,339 9TH AVENUE LAGRANGE,NH
MEADOWBROOK MANOR LAGRANGE,339 SOUTH 9TH STREET,Lagrange,,339 SOUTH 9TH STREET LAGRANGE,SNF
SYMPHONY OF BRONZEVILLE,3400 SOUTH INDIANA CHICAGO,Chicago,60616,3400 SOUTH INDIANA CHICAGO,NH
KENSINGTON PLACE NRSG & REHAB,3405 SOUTH MICHIGAN AVENUE CHICAGO,Chicago,60616,3405 SOUTH MICHIGAN AVENUE CHICAGO,NH
PRAIRIE MANOR NRSG & REHAB CTR,345 DIXIE HIGHWAY CHICAGO HEIGHTS,Chicago Heights,60411,345 DIXIE HIGHWAY CHICAGO HEIGHTS,NH
Riverside Medical Center,350 N Wall Street,Kankakee,60901,350 NORTH WALL STREET KANKAKEE,ACH
FRIENDSHIP VILLAGE OF SCHAUMBURG,350 WEST SCHAUMBURG ROAD,Schaumburg,,350 WEST SCHAUMBURG ROAD SCHAUMBURG,SNF
The Carrington at Lincolnwood,3501 NORTHEAST PKWY LINCOLNWOOD,Lincolnwood,60712,3501 NORTHEAST PKWY LINCOLNWOOD,NH
Presence Saint Francis Hospital -Evanston,355 Ridge Ave,Evanston,60202,355 RIDGE AVENUE EVANSTON,ACH
COURTYARD HEALTHCARE CENTER,3601 SOUTH HARLEM AVENUE,Berwyn,,3601 SOUTH HARLEM AVENUE BERWYN,SNF
MERCY CIRCLE,3659 WEST 99TH STREET CHICAGO,Chicago,60655,3659 WEST 99TH STREET CHICAGO,NH
Centegra Hospital Woodstock,3701 Doty Rd,Woodstock,60098,3701 DOTY ROADWOODSTOCK,ACH
SUNSET OF HAZEL CREST,3701 WEST 183RD STREET HAZEL CREST,Hazel Crest,60429,3701 WEST 183RD STREET HAZEL CREST,NH
PAUL HOUSE & HEALTH CR CTR,3800 NORTH CALIFORNIA CHICAGO,Chicago,60618,3800 NORTH CALIFORNIA CHICAGO,NH
CLEARBROOK EAST,3802 SOUTH OLD WILKE ROAD,Rolling Meadows,,3802 SOUTH OLD WILKE ROAD ROLLING MEADOWS,SNF
Advocate Good Samaritan Hospital,3815 Highland Avenue,Downers Grove,60515,3815 HIGHLAND AVENUE DOWNERS GROVE,ACH
PERSHING CONVALESCENT HOME,3900 OAK PARK AVE,Berwyn,,3900 OAK PARK AVENUE BERWYN,SNF
PERSHING GARDENS HC CENTER,3900 SOUTH OAK PARK AVENUE STICKNEY,Stickney,60402,3900 SOUTH OAK PARK AVENUE STICKNEY,NH
ABINGTON OF GLENVIEW,3901 GLENVIEW ROAD,Glenview,,3901 GLENVIEW ROAD GLENVIEW,SNF
HARMONY NURSING & REHAB CENTER,3919 WEST FOSTER AVENUE CHICAGO,Chicago,60625,3919 WEST FOSTER AVENUE CHICAGO,NH
FLOSSMOOR TERRACE,3951 WEST 190TH STREET FLOSSMOOR,Flossmoor,60422,3951 WEST 190TH STREET FLOSSMOOR,NH
CONCORD EXTENDED CARE (CLEARBROOK HOMES),3980 FAIRFAX,Rolling Meadows,,3980 FAIRFAX ROLLING MEADOWS,SNF
Jersey Community Hospital,400 Maple Summit Road,Jerseyville,62052,400 MAPLE SUMMIT ROAD JERSEYVILLE,ACH
Community Memorial Hospital,400 N Caldwell,Staunton,62088,400 NORTH CALDWELL STAUNTON,ACH
SSM St. Mary's Hospital -Centralia,400 N Pleasant,Centralia,62801,400 NORTH PLEASANT CENTRALIA,ACH
ST JOSEPH VILLAGE OF CHICAGO,4021 WEST BELMONT AVENUE CHICAGO,Chicago,60641,4021 WEST BELMONT AVENUE CHICAGO,NH
Katherine Shaw Bethea Hospital,403 E. First St.,Dixon,61021,403 EAST FIRST STREET DIXON,ACH
SIH Memorial Hospital Of Carbondale,"405 West Jackson Street,p.O. Box 10000",Carbondale,62901,"405 WEST JACKSON STREET,PO BOX 10000 CARBONDALE",ACH
Genesis Medical Center - Aledo,409 NW 9th Ave,Aledo,61231,409 NORTHWEST 9TH AVENUE ALEDO,ACH
ROSEWOOD CARE CENTER - NORTHBROOK,4101 LAKE COOK ROAD,Northbrook,,4101 LAKE COOK ROAD NORTHBROOK,SNF
PROVIDENCE CENTER,4200 NORTH AUSTIN CHICAGO,Chicago,60634,4200 NORTH AUSTIN CHICAGO,NH
Centegra Hospital Mchenry,4201 W Medical Center Rd??,Mchenry,60050,4201 WEST MEDICAL CENTER RD?? MCHENRY,ACH
Dr. John Warner Hospital,422 W. White St,Clinton,61727,422 WEST WHITE STREET CLINTON,ACH
PEARL OF ROLLING MEADOWS (MANORCARE),4225 KIRCHOFF ROAD,Rolling Meadows,,4225 KIRCHOFF ROAD ROLLING MEADOWS,SNF
DAVIS HOUSE,4237 SOUTH INDIANA AVENUE CHICAGO,Chicago,60653,4237 SOUTH INDIANA AVENUE CHICAGO,NH
"MATHER EVANSTON,THE",425 DAVIS STREET EVANSTON,Evanston,60201,425 DAVIS STREET EVANSTON,NH
BROADWAY TERRACE,43 BROADWAY CHICAGO HEIGHTS,Chicago Heights,60411,43 BROADWAY CHICAGO HEIGHTS,NH
COMMUNITY CARE CENTER,4314 SOUTH WABASH AVENUE CHICAGO,Chicago,60653,4314 SOUTH WABASH AVENUE CHICAGO,NH
WILMETTE CITADEL ( formaerly MANOR CARE OF WILMETTE),432 POPLAR DRIVE,Wilmette,,432 POPLAR DRIVE WILMETTE,SNF
ELEVATE CARE IRVING PARK,4340 NORTH KEYSTONE CHICAGO,Chicago,60641,4340 NORTH KEYSTONE CHICAGO,NH
SYMPHONY AT MIDWAY,4437 SOUTH CICERO CHICAGO,Chicago,60632,4437 SOUTH CICERO CHICAGO,NH
Advocate Christ Medical Center,4440 West 95th Street,Oak Lawn,60453,4440 WEST 95TH STREET OAK LAWN,ACH
Roseland Community Hospital,45 W 111 th Street,Chicago,60628,45 WEST 111 TH STREET CHICAGO,ACH
Advocate Good Shepherd Hospital,450 West Highway 22,Barrington,60084,450 WEST HIGHWAY 22 BARRINGTON,ACH
Memorial Hospital-Belleville,4500 Memorial Drive,Belleville,62226,4500 MEMORIAL DRIVE BELLEVILLE,ACH
"ESTATES OF HYDE PARK,THE",4505 SOUTH DREXEL BOULEVARD CHICAGO,Chicago,60653,4505 SOUTH DREXEL BOULEVARD CHICAGO,NH
BEACON HEALTH CENTER,4538 NORTH BEACON CHICAGO,Chicago,60640,4538 NORTH BEACON CHICAGO,NH
DANFORTH HOUSE,4540 SOUTH MICHIGAN AVENUE CHICAGO,Chicago,60653,4540 SOUTH MICHIGAN AVENUE CHICAGO,NH
WILSON CARE,4544 NORTH HAZEL STREET CHICAGO,Chicago,60640,4544 NORTH HAZEL STREET CHICAGO,NH
SYMPHONY AT ARIA,4600 N FRONTAGE,Hillside,,4600 NORTH FRONTAGE HILLSIDE,SNF
SYMPHONY AT ARIA,4600 NORTH FRONTAGE ROAD HILLSIDE,Hillside,60162,4600 NORTH FRONTAGE ROAD HILLSIDE,NH
SKOKIE MEADOWS,4600 WEST GOLF ROAD SKOKIE,Skokie,60076,4600 WEST GOLF ROAD SKOKIE,NH
MADO HEALTHCARE - UPTOWN,4621 NORTH RACINE AVENUE CHICAGO,Chicago,60640,4621 NORTH RACINE AVENUE CHICAGO,NH
GRASMERE PLACE,4621 NORTH SHERIDAN ROAD CHICAGO,Chicago,60640,4621 NORTH SHERIDAN ROAD CHICAGO,NH
ALDEN ESTATES OF SKOKIE,4626 OLD ORCHARD ROAD SKOKIE,Skokie,60076,4626 OLD ORCHARD ROAD SKOKIE,NH
Weiss Hospital,4646 North Marine Drive,Chicago,60640,4646 NORTH MARINE DRIVE CHICAGO,ACH
LEXINGTON OF LAGRANGE,4735 WILLOW SPRINGS ROAD,Lagrange,,4735 WILLOW SPRINGS ROAD LAGRANGE,SNF
CENTRAL BAPTIST VILLAGE,4747 NORTH CANFIELD AVENUE,Norridge,,4747 NORTH CANFIELD AVENUE NORRIDGE,SNF
PRESENCE VILLA SCALABRINI NURSING-REHAB,480 NORTH WOLF ROAD,Northlake,,480 NORTH WOLF ROAD NORTHLAKE,SNF
APERION CARE INTERNATIONAL,4815 SOUTH WESTERN AVENUE CHICAGO,Chicago,60609,4815 SOUTH WESTERN AVENUE CHICAGO,NH
APERION CARE CHICAGO HEIGHTS,490 WEST 16TH PLACE,Chicago Heights,,490 WEST 16TH PLACE CHICAGO HEIGHTS,SNF
AMBASSADOR NSG & REHAB CENTER,4900 NORTH BERNARD CHICAGO,Chicago,60625,4900 NORTH BERNARD CHICAGO,NH
COUNTRY CLUB TERRACE,4900 WEST 183RD STREET CNTRY CLUB HILLS,Cntry Club Hills,60478,4900 WEST 183RD STREET CNTRY CLUB HILLS,NH
UPTOWN HEALTH CENTER,4920 NORTH KENMORE CHICAGO,Chicago,60640,4920 NORTH KENMORE CHICAGO,NH
BETHANY HOME,4950 NORTH ASHLAND AVENUE CHICAGO,Chicago,60640,4950 NORTH ASHLAND AVENUE CHICAGO,NH
"GROVE OF EVANSTON L & R, THE",500 ASBURY AVENUE EVANSTON,Evanston,60202,500 ASBURY AVENUE EVANSTON,NH
Provident Hospital,500 East 51st Street,Chicago,60615,500 EAST 51ST STREET CHICAGO,ACH
Unitypoint Health-Moline,500 John Deere Road,Moline,61265,500 JOHN DEERE ROAD MOLINE,ACH
Adventist Bolingbrook Hospital,500 Remington Blvd,Bolingbrook,60440,500 REMINGTON BOULEVARD BOLINGBROOK,ACH
Presence St. Mary's Hospital,500 West Court Street,Kankakee,60901,500 WEST COURT STREET KANKAKEE,ACH
Va Hines - Va Hospital,5000 South 5th Avenue,Hines,60141,5000 SOUTH 5TH AVENUE HINES,ACH
Bethany Methodist Hospital of Chicago,5025 North Paulina Street,Chicago,60640,5025 NORTH PAULINA STREET CHICAGO,ACH
SHORE HOMES EAST,503 MICHIGAN AVENUE EVANSTON,Evanston,60202,503 MICHIGAN AVENUE EVANSTON,NH
HSHS St. Anthony's Memorial Hospital,503 North Maple Street,Effingham,62401,503 NORTH MAPLE STREET EFFINGHAM,ACH
ALDEN LINCOLN REHAB & H C CTR,504 WEST WELLINGTON AVENUE CHICAGO,Chicago,60657,504 WEST WELLINGTON AVENUE CHICAGO,NH
ALDEN NORTH SHORE REHAB & HCC,5050 WEST TOUHY AVENUE SKOKIE,Skokie,60077,5050 WEST TOUHY AVENUE SKOKIE,NH
FAIRMONT CARE,5061 NORTH PULASKI ROAD CHICAGO,Chicago,60630,5061 NORTH PULASKI ROAD CHICAGO,NH
Adventist La Grange Memorial Hospital,5101 South Willow Springs Road,La Grange,60525,5101 SOUTH WILLOW SPRINGS ROAD LA GRANGE,ACH
COLUMBUS MANOR RES CARE HOME,5107 WEST JACKSON BOULEVARD CHICAGO,Chicago,60644,5107 WEST JACKSON BOULEVARD CHICAGO,NH
SYMPHONY OF CHICAGO WEST,5130 WEST JACKSON BOULEVARD CHICAGO,Chicago,60644,5130 WEST JACKSON BOULEVARD CHICAGO,NH
Swedish Covenant Hospital,5145 N California Avenue,Chicago,60625,5145 NORTH CALIFORNIA AVENUE CHICAGO,ACH
SWEDISH COVENANT HOSPITAL,5145 NORTH CALIFORNIA CHICAGO,Chicago,60625,5145 NORTH CALIFORNIA CHICAGO,NH
Union County Hospital,517 North Main,Anna,62906,517 NORTH MAIN ANNA,ACH
Rush Oak Park Hospital,520 S Maple Ave,Oak Park,60304,520 SOUTH MAPLE AVENUE OAK PARK,ACH
McDonough District Hospital,525 E Grant St,Macomb,61455,525 EAST GRANT STREET MACOMB,ACH
OSF Saint Francis Medical Center,530 NE Glen Oak Ave,Peoria,61637,530 NORTHEAST GLEN OAK AVENUE PEORIA,ACH
Perry Memorial,530 Park Ave East,Princeton,61356,530 PARK AVENUE EAST PRINCETON,ACH
CONTINENTAL NSG & REHAB CTR,5336 NORTH WESTERN AVENUE CHICAGO,Chicago,60625,5336 NORTH WESTERN AVENUE CHICAGO,NH
VERACARE BURBANK,5400 WEST 87TH STREET,Burbank,,5400 WEST 87TH STREET BURBANK,SNF
Unitypoint Health - Proctor Hospital,5409 N Knoxville Ave,Peoria,61614,5409 NORTH KNOXVILLE AVENUE PEORIA,ACH
ALL AMERICAN NURSING HOME,5448 NORTH BROADWAY STREET CHICAGO,Chicago,60640,5448 NORTH BROADWAY STREET CHICAGO,NH
TERRACES AT THE CLARE,55 EAST PEARSON STREET CHICAGO,Chicago,60611,55 EAST PEARSON STREET CHICAGO,NH
BRYN MAWR CARE,5547 NORTH KENMORE AVENUE CHICAGO,Chicago,60640,5547 NORTH KENMORE AVENUE CHICAGO,NH
ADDOLORATA VILLA,555 MCHENRY ROAD,Wheeling,,555 MCHENRY ROAD WHEELING,SNF
MONTGOMERY PLACE,5550 SOUTH SHORE DRIVE CHICAGO,Chicago,60637,5550 SOUTH SHORE DRIVE CHICAGO,NH
Community First Medical Center,5645 W Addison St,Chicago,60634,5645 WEST ADDISON STREET CHICAGO,ACH
"DANISH HOME, THE",5656 NORTH NEWCASTLE AVENUE CHICAGO,Chicago,60631,5656 NORTH NEWCASTLE AVENUE CHICAGO,NH
OSF Saint Anthony Medical Center,5666 East State St,Rockford,61108,5666 EAST STATE STREET ROCKFORD,ACH
APERION CARE BURBANK,5701 WEST 79TH STREET,Burbank,,5701 WEST 79TH STREET BURBANK,SNF
University of Chicago Medical Center-Comer,5721 S. Maryland Avenue,Chicago,60637,5721 SOUTH MARYLAND AVENUE CHICAGO,ACH
CITY VIEW MULTICARE CENTER,5825 WEST CERMAK ROAD CICERO,Cicero,60804,5825 WEST CERMAK ROAD CICERO,NH
ALDEN ESTATES OF NORTHMOOR,5831 NORTH NORTHWEST HIGHWAY CHICAGO,Chicago,60631,5831 NORTH NORTHWEST HIGHWAY CHICAGO,NH
PARK LAWN CENTER,5831 WEST 115TH STREET ALSIP,Alsip,60803,5831 WEST 115TH STREET ALSIP,NH
SHERIDAN VILLAGE NRSG & RHB,5838 NORTH SHERIDAN ROAD CHICAGO,Chicago,60660,5838 NORTH SHERIDAN ROAD CHICAGO,NH
University of Chicago Medical Center-Mitchell,5841 South Maryland Avenue,Chicago,60637,5841 SOUTH MARYLAND AVENUE CHICAGO,ACH
PARK VIEW REHAB CENTER,5888 NORTH RIDGE CHICAGO,Chicago,60660,5888 NORTH RIDGE CHICAGO,NH
Touchette Regional Hospital,5900 Bond Ave,Centreville,62207,5900 BOND AVENUE CENTREVILLE,ACH
MAYFIELD HEALTH CENTER,5905 WEST WASHINGTON CHICAGO,Chicago,60644,5905 WEST WASHINGTON CHICAGO,NH
Hardin County General Hospital,6 Ferrell Rd,Rosiclare,62982,6 FERRELL ROADROSICLARE,ACH
St. Margaret's Hospital,600 E 1st Street,Spring Valley,61362,600 EAST 1ST STREET SPRING VALLEY,ACH
Hammond Henry Hospital,600 N College Ave,Geneseo,61254,600 NORTH COLLEGE AVENUE GENESEO,ACH
Pekin Memorial Hospital,600 S 13th Street,Pekin,61554,600 SOUTH 13TH STREET PEKIN,ACH
MANORCARE OF HINSDALE,600 WEST OGDEN AVENUE,Hinsdale,,600 WEST OGDEN AVENUE HINSDALE,SNF
NORWOOD CROSSING,6016 NORTH NINA AVENUE CHICAGO,Chicago,60631,6016 NORTH NINA AVENUE CHICAGO,NH
KING BRUWAERT HOUSE,6101 COUNTY LINE ROAD BURR RIDGE,Burr Ridge,60527,6101 COUNTY LINE ROAD BURR RIDGE,NH
KING-BRUWAERT HOUSE,6101 S. COUNTY LINE ROAD,Burr Ridge,,6101 SOUTH COUNTY LINE ROAD BURR RIDGE,SNF
Hamilton Memorial,611 S Marshall Ave,Mcleansboro,62859,611 SOUTH MARSHALL AVENUE MCLEANSBORO,ACH
Carle Foundation Hospital,611 W. Park Street,Urbana,61801,611 WEST PARK STREET URBANA,ACH
ALDEN-TOWN MANOR REHAB & HHC,6120 WEST OGDEN,Cicero,,6120 WEST OGDEN CICERO,SNF
PARKSHORE ESTATES NRSG & REHAB,6125 SOUTH KENWOOD CHICAGO,Chicago,60637,6125 SOUTH KENWOOD CHICAGO,NH
PETERSON PARK HEALTH CARE CTR,6141 NORTH PULASKI ROAD CHICAGO,Chicago,60646,6141 NORTH PULASKI ROAD CHICAGO,NH
Mason District Hospital,615 N Promenade,Havana,62644,615 NORTH PROMENADE HAVANA,ACH
HEART OF MERCY APARTMENTS,6200 NORTH WINCHESTER CHICAGO,Chicago,60660,6200 NORTH WINCHESTER CHICAGO,NH
PARAMOUNT OAK PARK,625 N Harlem Ave,Oak Park,,625 NORTH HARLEM AVENUE OAK PARK,SNF
OAK PARK OASIS,625 NORTH HARLEM OAK PARK,Oak Park,60302,625 NORTH HARLEM OAK PARK,NH
ASTORIA PLACE LIVING & REHAB,6300 NORTH CALIFORNIA AVENUE CHICAGO,Chicago,60659,6300 NORTH CALIFORNIA AVENUE CHICAGO,NH
BRACH HOUSE,6300 NORTH RIDGE AVENUE CHICAGO,Chicago,60660,6300 NORTH RIDGE AVENUE CHICAGO,NH
MANORCARE OF OAK LAWN WEST,6300 WEST 95TH STREET,Oak Lawn,,6300 WEST 95TH STREET OAK LAWN,SNF
Illini Community Hospital,640 West Washington,Pittsfield,62363,640 WEST WASHINGTON PITTSFIELD,ACH
DOLTON COURT,644 SHERIDAN AVENUE DOLTON,Dolton,60419,644 SHERIDAN AVENUE DOLTON,NH
Loretto Hospital,645 South Central Avenue,Chicago,60644,645 SOUTH CENTRAL AVENUE CHICAGO,ACH
APERION CARE WEST RIDGE,6450 NORTH RIDGE BOULEVARD CHICAGO,Chicago,60626,6450 NORTH RIDGE BOULEVARD CHICAGO,NH
Fayette County Hospital,650 West Taylor St.,Vandalia,62471,650 WEST TAYLOR STREET VANDALIA,ACH
La Rabida Children's Hospital,6501 South Promontory Drive,Chicago,60649,6501 SOUTH PROMONTORY DRIVE CHICAGO,ACH
WARREN BARR GOLD COAST,66 WEST OAK STREET CHICAGO,Chicago,60610,66 WEST OAK STREET CHICAGO,NH
Northwestern Lake Forest Hospital,660 North Westmoreland,Lake Forest,60045,660 NORTH WESTMORELAND LAKE FOREST,ACH
KNIGHT HOUSE,6600 SOUTH STEWART CHICAGO,Chicago,60621,6600 SOUTH STEWART CHICAGO,NH
GROSSE POINTE MANOR,6601 WEST TOUHY AVENUE,Niles,,6601 WEST TOUHY AVENUE NILES,SNF
GROSSE POINTE MANOR,6601 WEST TOUHY NILES,Niles,60714,6601 WEST TOUHY NILES,NH
REGENCY REHABILITATION CENTER,6631 MILWAUKEE AVENUE,Niles,,6631 MILWAUKEE AVENUE NILES,SNF
GENERATIONS REGENCY NILES,6631 N. MILWAUKEE AVE,Niles,,6631 NORTH MILWAUKEE AVENUE NILES,SNF
PARK RIDGE CARE CENTER,665 BUSSE HIGHWAY,Park Ridge,,665 BUSSE HIGHWAY PARK RIDGE,SNF
WARREN PARK HLTH & LIVING CTR,6700 NORTH DAMEN CHICAGO,Chicago,60645,6700 NORTH DAMEN CHICAGO,NH
HAMMOND HOUSE,6701 SOUTH MORGAN CHICAGO,Chicago,60621,6701 SOUTH MORGAN CHICAGO,NH
LEXINGTON OF SCHAUMBURG,675 SOUTH ROSELLE ROAD,Schaumburg,,675 SOUTH ROSELLE ROAD SCHAUMBURG,SNF
BRIAR PLACE NURSING CENTER,6800 JOLIET ROAD,Indian Head Park,,6800 JOLIET ROAD INDIAN HEAD PARK,SNF
Anderson Hospital,6800 State Route 162,Maryville,62062,6800 STATE ROUTE 162 MARYVILLE,ACH
BRIAR PLACE NURSING,6800 WEST JOLIET INDIAN HEAD PARK,Indian Head Park,60525,6800 WEST JOLIET INDIAN HEAD PARK,NH
BROOKDALE BURR RIDGE,6801 HIGHGROVE BOULEVARD,Burr Ridge,,6801 HIGHGROVE BOULEVARD BURR RIDGE,SNF
AVANTI WELLNESS & REHAB,6840 WEST TOUHY AVENUE,Niles,,6840 WEST TOUHY AVENUE NILES,SNF
BERKELEY NURSING & REHAB CENTER,6909 WEST NORTH AVENUE,Oak Park,,6909 WEST NORTH AVENUE OAK PARK,SNF
PRESENCE ST. BENEDICT NURSING & REHAB,6930 WEST TOUHY AVENUE,Niles,,6930 WEST TOUHY AVENUE NILES,SNF
Galesburg Cottage Hospital,695 N Kellogg St,Galesburg,61401,695 NORTH KELLOGG STREET GALESBURG,ACH
BROOKDALE PROSPECT HEIGHTS,700 EAST EUCLID AVENUE,Prospect Heights,,700 EAST EUCLID AVENUE PROSPECT HEIGHTS,SNF
BELMONT VILLAGE LINCOLN PARK,700 WEST FULLERTON AVENUE CHICAGO,Chicago,60614,700 WEST FULLERTON AVENUE CHICAGO,NH
LINCOLNWOOD PLACE,7000 NORTH MCCORMICK BOULEVARD LINCOLNWOOD,Lincolnwood,60712,7000 NORTH MCCORMICK BOULEVARD LINCOLNWOOD,NH
ELEVATE ST ANDREW LIVING COMM,7000 NORTH NEWARK AVENUE NILES,Niles,60714,7000 NORTH NEWARK AVENUE NILES,NH
GLEN SAINT ANDREW LIVING COMMUNITY,7000 NORTH NEWARK,Niles,,7000 NORTH NEWARK NILES,SNF
NORRIDGE GARDENS,7001 WEST CULLOM AVE,Norridge,,7001 WEST CULLOM AVENUE NORRIDGE,SNF
NORRIDGE GARDENS,7001 WEST CULLOM NORRIDGE,Norridge,60706,7001 WEST CULLOM NORRIDGE,NH
Hoopeston Regional Health Center,701 E. Orange Street,Hoopeston,60942,701 EAST ORANGE STREET HOOPESTON,ACH
Memorial Medical Center-Springfield,701 N First Street,Springfield,62781,701 NORTH FIRST STREET SPRINGFIELD,ACH
THE GROVE OF LA GRANGE PARK,701 NORTH LAGRANGE ROAD,Lagrange Park,,701 NORTH LAGRANGE ROAD LAGRANGE PARK,SNF
Loyola Gottlieb Memorial Hospital,701 West North Ave,Melrose Park,60160,701 WEST NORTH AVENUE MELROSE PARK,ACH
Adventist GlenOaks Hospital,701 Winthrop Ave,Glendale Heights,60139,701 WINTHROP AVENUE GLENDALE HEIGHTS,ACH
Washington County Hospital,705 South Grand Avenue,Nashville,62263,705 SOUTH GRAND AVENUE NASHVILLE,ACH
MANOR CARE OF ARLINGTON HEIGHTS,715 WEST CENTRAL ROAD,Arlington Heights,,715 WEST CENTRAL ROAD ARLINGTON HEIGHTS,SNF
MANORCARE OF ARLINGTON HEIGHTS,715 WEST CENTRAL ROAD ARLINGTON HTS,Arlington Heights,60005,715 WEST CENTRAL ROAD ARLINGTON HTS,NH
"MOSAIC OF LAKESHORE, THE",7200 NORTH SHERIDAN ROAD CHICAGO,Chicago,60626,7200 NORTH SHERIDAN ROAD CHICAGO,NH
Paris Community Hospital,721 E Court St,Paris,61944,721 EAST COURT STREET PARIS,ACH
"CARLTON AT THE LAKE, THE",725 WEST MONTROSE AVENUE CHICAGO,Chicago,60613,725 WEST MONTROSE AVENUE CHICAGO,NH
LEXINGTON HEALTH CARE - WHEELING,730 WEST HINTZ ROAD,Wheeling,,730 WEST HINTZ ROAD WHEELING,SNF
RAINBOW BEACH CARE CENTER,7325 SOUTH EXCHANGE CHICAGO,Chicago,60649,7325 SOUTH EXCHANGE CHICAGO,NH
LAKEVIEW REHAB & NRSG CENTER,735 WEST DIVERSEY CHICAGO,Chicago,60614,735 WEST DIVERSEY CHICAGO,NH
CHALET LIVING & REHAB,7350 NORTH SHERIDAN ROAD CHICAGO,Chicago,60626,7350 NORTH SHERIDAN ROAD CHICAGO,NH
PRESENCE RESURRECTION LIFE CTR,7370 WEST TALCOTT AVENUE CHICAGO,Chicago,60631,7370 WEST TALCOTT AVENUE CHICAGO,NH
CLARK MANOR,7433 NORTH CLARK STREET CHICAGO,Chicago,60626,7433 NORTH CLARK STREET CHICAGO,NH
Presence Resurrection Medical Center,7435 W Talcott,Chicago,60631,7435 WEST TALCOTT CHICAGO,ACH
"WATERFORD CARE CENTER,THE",7445 NORTH SHERIDAN ROAD CHICAGO,Chicago,60626,7445 NORTH SHERIDAN ROAD CHICAGO,NH
ALDEN VILLAGE NORTH,7464 NORTH SHERIDAN ROAD CHICAGO,Chicago,60626,7464 NORTH SHERIDAN ROAD CHICAGO,NH
Jackson Park Hospital,7532 S. Stony Island,Chicago,60649,7532 SOUTH STONY ISLAND CHICAGO,ACH
HARBOR HOUSE,760 MCHENRY ROAD WHEELING,Wheeling,60090,760 MCHENRY ROAD WHEELING,NH
THE MOORINGS HEALTH CENTER,761 OLD BARN LANE,Arlington Heights,,761 OLD BARN LANE ARLINGTON HEIGHTS,SNF
MOORINGS OF ARLINGTON HEIGHTS,761 OLD BARN LANE ARLINGTON HTS,Arlington Heights,60005,761 OLD BARN LANE ARLINGTON HTS,NH
LAKEFRONT NURSING & REHAB CTR,7618 NORTH SHERIDAN ROAD CHICAGO,Chicago,60626,7618 NORTH SHERIDAN ROAD CHICAGO,NH
Presence Saint Joseph Hospital-Elgin,77 North Airlite,Elgin,60123,77 NORTH AIRLITE ELGIN,ACH
GENERATIONS AT ELMWOOD PARK,7733 GRAND AVENUE,Elmwood Park,,7733 GRAND AVENUE ELMWOOD PARK,SNF
GENERATIONS AT ELMWOOD PARK,7733 WEST GRAND AVENUE ELMWOOD PARK,Elmwood Park,60707,7733 WEST GRAND AVENUE ELMWOOD PARK,NH
WATERFRONT TERRACE,7750 SOUTH SHORE DRIVE CHICAGO,Chicago,60649,7750 SOUTH SHORE DRIVE CHICAGO,NH
NorthShore Highland Park Hospital,777 Park Ave West,Highland Park,60035,777 PARK AVENUE WEST HIGHLAND PARK,ACH
MANORCARE OF PALOS HEIGHTS EAST,7850 WEST COLLEGE DRIVE,Palos Heights,,7850 WEST COLLEGE DRIVE PALOS HEIGHTS,SNF
ARDEN COURTS OF PALOS HEIGHTS,7880 WEST COLLEGE DRIVE PALOS HEIGHTS,Palos Heights,60463,7880 WEST COLLEGE DRIVE PALOS HEIGHTS,NH
LITTLE SISTERS OF PALATINE,80 WEST NORTHWEST HIGHWAY PALATINE,Palatine,60067,80 WEST NORTHWEST HIGHWAY PALATINE,NH
Alexian Brothers Medical Center,800 Biesterfield Road,Elk Grove Village,60007,800 BIESTERFIELD ROAD ELK GROVE VILLAGE,ACH
HSHS St. John's Hospital,800 E. Carpenter St.,Springfield,62769,800 EAST CARPENTER STREET SPRINGFIELD,ACH
Richland Memorial Hospital,800 E Locust St,Olney,62450,800 EAST LOCUST STREET OLNEY,ACH
Thomas H. Boyd Memorial Hospital,800 School Street,Carrollton,62016,800 SCHOOL STREET CARROLLTON,ACH
Northwest Community Hospital,800 W Central Road,Arlington Heights,60005,800 WEST CENTRAL ROAD ARLINGTON HEIGHTS,ACH
LUTHERAN HOME FOR THE AGED,800 WEST OAKTON STREET,Arlington Heights,,800 WEST OAKTON STREET ARLINGTON HEIGHTS,SNF
LUTHERAN HOME FOR THE AGED,800 WEST OAKTON STREET ARLINGTON HTS,Arlington Heights,60004,800 WEST OAKTON STREET ARLINGTON HTS,NH
BRIA OF FOREST EDGE,8001 SOUTH WESTERN AVENUE CHICAGO,Chicago,60620,8001 SOUTH WESTERN AVENUE CHICAGO,NH
Genesis Medical Center-Illini,801 Illini Road,Silvis,61282,801 ILLINI ROAD SILVIS,ACH
Advocate Condell Medical Center,801 South Milwaukee Avenue,Libertyville,60048,801 SOUTH MILWAUKEE AVENUE LIBERTYVILLE,ACH
Edward Hospital - Naperville,801 South Washington Street,Naperville,60540,801 SOUTH WASHINGTON STREET NAPERVILLE,ACH
South Shore Hospital,8012 South Crandon Ave,Chicago,60617,8012 SOUTH CRANDON AVENUE CHICAGO,ACH
BRIDGEVIEW HEALTH CARE CENTER,8100 SOUTH HARLEM AVENUE,Bridgeview,,8100 SOUTH HARLEM AVENUE BRIDGEVIEW,SNF
OSF Sacred Heart Medical Center,812 North Logan Ave,Danville,61832,812 NORTH LOGAN AVENUE DANVILLE,ACH
LEXINGTON OF STREAMWOOD,815 EAST IRVING PARK ROAD,Streamwood,,815 EAST IRVING PARK ROAD STREAMWOOD,SNF
SHORE HOME WEST,8167-69 LINCOLN AVENUE SKOKIE,Skokie,60077,8167-69 LINCOLN AVENUE SKOKIE,NH
Sparta Community Hospital,818 E Broadway,Sparta,62286,818 EAST BROADWAY SPARTA,ACH
SYMPHONY EVANSTON HEALTHCARE,820 FOSTER STREET EVANSTON,Evanston,60201,820 FOSTER STREET EVANSTON,NH
ALDEN LAKELAND REHAB & HCC,820 WEST LAWRENCE CHICAGO,Chicago,60640,820 WEST LAWRENCE CHICAGO,NH
APERION CARE FOREST PARK,8200 ROOSEVELT ROAD,Forest Park,,8200 ROOSEVELT ROAD FOREST PARK,SNF
APERION CARE FOREST PARK,8200 WEST ROOSEVELT ROAD FOREST PARK,Forest Park,60130,8200 WEST ROOSEVELT ROAD FOREST PARK,NH
BONAVENTURE HOUSE,825 WEST WELLINGTON CHICAGO,Chicago,60657,825 WEST WELLINGTON CHICAGO,NH
ASSISI HEALTHCARE CENTER AT CLARE OAKS,829 CARILLON DRIVE,Bartlett,,829 CARILLON DRIVE BARTLETT,SNF
GLENBRIDGE NURSING & REHABILITATION CTR,8333 WEST GOLF ROAD,Niles,,8333 WEST GOLF ROAD NILES,SNF
GARDEN CENTER SERVICES,8345 SOUTH AUSTIN AVENUE BURBANK,Burbank,60459,8345 SOUTH AUSTIN AVENUE BURBANK,NH
Advocate Illinois Masonic Medical Center,836 West Wellington Avenue,Chicago,60657,836 WEST WELLINGTON AVENUE CHICAGO,ACH
BELLA TERRA MORTON GROVE,8425 WAUKEGAN ROAD,Morton Grove,,8425 WAUKEGAN ROAD MORTON GROVE,SNF
Thorek Memorial Hospital,850 W. Irving Park,Chicago,60613,850 WEST IRVING PARK CHICAGO,ACH
MIDWAY NEUROLOGICAL & REHAB CENTER,8540 SOUTH HARLEM AVENUE,Bridgeview,,8540 SOUTH HARLEM AVENUE BRIDGEVIEW,SNF
"BRITISH HOME, THE",8700 WEST 31ST STREET BROOKFIELD,Brookfield,60513,8700 WEST 31ST STREET BROOKFIELD,NH
Rochelle Community Hospital,900 North Second Street,Rochelle,61068,900 NORTH SECOND STREET ROCHELLE,ACH
Marshall Browning Hospital,900 N. Washington St.,Du Quoin,62832,900 NORTH WASHINGTON STREET DU QUOIN,ACH
"GROVE OF SKOKIE,THE",9000 LAVERGNE AVENUE SKOKIE,Skokie,60077,9000 LAVERGNE AVENUE SKOKIE,NH
THE GROVE OF SKOKIE,9000 N. Lavergne Avenue,Skokie,,9000 NORTH LAVERGNE AVENUE SKOKIE,SNF
ROSARY HILL HOME,9000 WEST 81ST STREET,Justice,,9000 WEST 81ST STREET JUSTICE,SNF
Mercy Harvard Hospital,901 Grant Street,Harvard,60033,901 GRANT STREET HARVARD,ACH
ALBANY CARE,901 MAPLE AVENUE EVANSTON,Evanston,60202,901 MAPLE AVENUE EVANSTON,NH
"AUSTIN OASIS, THE",901 SOUTH AUSTIN BOULEVARD CHICAGO,Chicago,60644,901 SOUTH AUSTIN BOULEVARD CHICAGO,NH
SELFHELP HOME OF CHICAGO,908 WEST ARGYLE STREET CHICAGO,Chicago,60640,908 WEST ARGYLE STREET CHICAGO,NH
Clay County Hospital,911 Stacy Burk Drive,Flora,62839,911 STACY BURK DRIVE FLORA,ACH
MOORE HOUSE,9135 SOUTH BRANDON AVENUE CHICAGO,Chicago,60617,9135 SOUTH BRANDON AVENUE CHICAGO,NH
HICKORY NURSING PAVILION,9246 SOUTH ROBERTS ROAD,Hickory Hills,,9246 SOUTH ROBERTS ROAD HICKORY HILLS,SNF
Illinois Valley Community Hospital,925 West St.,Peru,61354,925 WEST STREET PERU,ACH
LANDMARK OF DES PLAINES (PRESENCE BALLARD NURSING CENTER),9300 BALLARD ROAD,Des Plaines,,9300 BALLARD ROAD DES PLAINES,SNF
"ADMIRAL AT THE LAKE, THE",933 WEST FOSTER AVENUE CHICAGO,Chicago,60640,933 WEST FOSTER AVENUE CHICAGO,NH
MANORCARE OF HOMEWOOD,940 MAPLE AVENUE,Homewood,,940 MAPLE AVENUE HOMEWOOD,SNF
MADO HEALTHCARE - BUENA PARK,940 WEST CULLOM AVENUE CHICAGO,Chicago,60613,940 WEST CULLOM AVENUE CHICAGO,NH
MANORCARE OF OAK LAWN EAST,9401 SOUTH KOSTNER AVENUE,Oak Lawn,,9401 SOUTH KOSTNER AVENUE OAK LAWN,SNF
APERION CARE OAK LAWN (FORMERLY CLEARBROOK WEST),9401 SOUTH RIDGELAND AVENUE,Oak Lawn,,9401 SOUTH RIDGELAND AVENUE OAK LAWN,SNF
HSHS  St. Joseph's Hospital-Breese,9515 Holy Cross Lane,Breese,62230,9515 HOLY CROSS LANE BREESE,ACH
OAK LAWN RESPIRATORY AND REHAB CENTER,9525 S MAYFIELD AV,Oak Lawn,,9525 SOUTH MAYFIELD AV OAK LAWN,SNF
OAK LAWN RESPIRATORY & REHAB,9525 SOUTH MAYFIELD OAKLAWN,Oaklawn,60453,9525 SOUTH MAYFIELD OAKLAWN,NH
GOLFVIEW DEVELOPMENTAL CENTER,9555 WEST GOLF ROAD,Des Plaines,,9555 WEST GOLF ROAD DES PLAINES,SNF
NorthShore Skokie Hospital,9600 Gross Point Road,Skokie,60076,9600 GROSS POINT ROAD SKOKIE,ACH
"CITADEL OF SKOKIE,THE",9615 NORTH KNOX AVENUE SKOKIE,Skokie,60076,9615 NORTH KNOX AVENUE SKOKIE,NH
LIEBERMAN CTR FOR HEALTH & REH,9700 GROSS POINT ROAD SKOKIE,Skokie,60076,9700 GROSS POINT ROAD SKOKIE,NH
"VINES AT COUNTRYSIDE, THE",971 BODE ROADELGIN,Elgin,60120,971 BODE ROADELGIN,NH
NILES NRSG & REHAB CENTER,9777 GREENWOOD AVENUE NILES,Niles,60714,9777 GREENWOOD AVENUE NILES,NH
NILES NURSING & REHABILITATION CENTER,9777 GREENWOOD,Niles,,9777 GREENWOOD NILES,SNF
Midwest Medical Center,One Medical Center Drive,Galena,61036,ONE MEDICAL CENTER DRIVE GALENA,ACH
